AMGU-1 (AMURSAT)        
1 44394U 19038J   22026.58659759  .00003924  00000+0  21405-3 0  9993
2 44394  97.6158 355.6731 0019217 263.6065  96.2974 15.14818089141547
DOT-1                   
1 44399U 19038P   22026.83582839  .00002707  00000+0  15423-3 0  9991
2 44399  97.6215 355.1098 0022150 267.2027  92.6669 15.13493313141511
SOKRAT                  
1 44404U 19038U   22026.56391604  .00004147  00000+0  22692-3 0  9992
2 44404  97.6175 355.3603 0019181 265.0524  94.8518 15.14674207141527
LUCKY-7                 
1 44406U 19038W   22026.41611254  .00002524  00000+0  14276-3 0  9990
2 44406  97.6208 354.9839 0021932 260.5072  99.3681 15.13827335141462
D-STAR ONE (EXOCONNECT) 
1 44410U 19038AA  22026.84044274  .00006466  00000+0  33845-3 0  9996
2 44410  97.6137 356.1625 0018518 260.2431  99.6710 15.16033491141615
NARSSCUBE-2             
1 44415U 19022E   22026.70993640  .00003660  00000+0  12701-3 0  9990
2 44415  51.6413  82.5754 0010407 266.5839  93.3952 15.32345083138368
DUCHIFAT-3              
1 44854U 19089C   22026.83529382  .00001510  00000+0  12532-3 0  9996
2 44854  36.9639 219.1806 0006292 153.5886 206.5177 15.00019647116655
OPS-SAT                 
1 44878U 19092F   22026.47654629  .00003976  00000+0  20035-3 0  9994
2 44878  97.4754 211.9258 0014552 112.3566 247.9212 15.17655643116646
FLORIPASAT-1            
1 44885U 19093G   22026.70574874  .00000892  00000+0  11741-3 0  9990
2 44885  97.9086 108.8540 0013289 296.8299  63.1549 14.82587132113840
HUSKYSAT-1 (HO-107)     
1 45119U 19071J   22026.44417569  .00010041  00000+0  26885-3 0  9997
2 45119  51.6411  33.7883 0010927  20.7669 339.3757 15.38594342111465
G-SAT                   
1 45597U 98067RK  22026.30946743  .00066663  00000+0  50445-3 0  9995
2 45597  51.6357 283.0627 0004122 119.7721 240.3688 15.71765238 99468
QUETZAL-1               
1 45598U 98067RL  22026.05730261  .00195309  00000+0  80634-3 0  9997
2 45598  51.6334 275.2941 0005283 171.3230 188.7866 15.84776095 99475
BY70-2                  
1 45857U 20042B   22026.87297768  .00002988  00000+0  42130-3 0  9992
2 45857  97.9680 105.2281 0010688 206.1199 153.9447 14.77956140 84537
SALSAT                  
1 46495U 20068K   22026.39864772  .00000702  00000+0  55491-4 0  9998
2 46495  97.7156 327.8646 0017872  41.5859 318.6722 15.03804642 72830
NETSAT-4                
1 46504U 20068U   22026.63344151  .00001911  00000+0  14810-3 0  9992
2 46504  97.7101 326.9157 0012922  88.1038 272.1661 15.02555323 72749
NETSAT-3                
1 46505U 20068V   22026.57870355  .00002297  00000+0  17736-3 0  9994
2 46505  97.7094 326.8018 0011719  92.2730 267.9859 15.02507536 72748
NETSAT-1                
1 46506U 20068W   22026.59060964  .00000926  00000+0  74420-4 0  9995
2 46506  97.7095 326.7687 0010575  94.9154 265.3303 15.02448485 72742
NETSAT-2                
1 46507U 20068X   22026.39779640  .00000627  00000+0  51892-4 0  9998
2 46507  97.7123 326.5768 0010186  99.7323 260.5046 15.02438981 72664
BY70-3                  
1 46839U 20079N   22026.76405876  .00009011  00000+0  25600-3 0  9999
2 46839  97.2175 101.2331 0008082 118.8050  29.9675 15.36368994 68450
SPOC                    
1 46921U 98067RR  22026.46042397  .00036945  00000+0  40200-3 0  9994
2 46921  51.6386 298.4004 0002483 159.0819 201.0278 15.63065610 69626
BOBCAT-1                
1 46922U 98067RS  22026.69661656  .00085750  00000+0  65262-3 0  9998
2 46922  51.6393 289.5086 0003342 164.2723 195.8379 15.71530100 69715
NEUTRON-1               
1 46923U 98067RT  22026.17422237  .00040091  00000+0  43770-3 0  9991
2 46923  51.6393 300.2433 0002276 163.3127 196.7943 15.62940975 69606
DESCENT                 
1 46927U 98067RX  22026.74762557  .00039775  00000+0  43056-3 0  9994
2 46927  51.6396 297.3201 0001901 180.5387 179.5606 15.63164104 69591
UVSQ-SAT                
1 47438U 21006AB  22026.12162850  .00003004  00000+0  16877-3 0  9990
2 47438  97.4595  88.0897 0013656  53.4657 306.7830 15.13990905 55737
SOMP2B                  
1 47445U 21006AJ  22026.42673666  .00002497  00000+0  14174-3 0  9996
2 47445  97.4568  88.1602 0013345  56.2068 304.0433 15.13782927 55779
WARP-01                 
1 47924U 98067SA  22026.76714224  .00060794  00000+0  62809-3 0  9994
2 47924  51.6378 303.4114 0004162 187.0190 173.0747 15.64161250 49578
RSP-01                  
1 47925U 98067SB  22026.48480177  .00043602  00000+0  51358-3 0  9997
2 47925  51.6407 306.8099 0003229 135.9411 224.1840 15.60936103 49487
TAUSAT-1                
1 47926U 98067SC  22026.49422504  .00063144  00000+0  64297-3 0  9998
2 47926  51.6397 303.8506 0004239 138.4734 221.6583 15.64512860 49518
TSURU                   
1 47927U 98067SD  22026.49983862  .00038294  00000+0  47320-3 0  9994
2 47927  51.6400 307.6565 0003131 133.6803 226.4450 15.59740808 49475
STARS-EC                
1 47928U 98067SE  22026.80330144  .00066218  00000+0  65065-3 0  9992
2 47928  51.6386 302.9152 0004572 189.8647 170.2260 15.65389774 49549
MAYA-2                  
1 47929U 98067SF  22026.75181471  .00036003  00000+0  44530-3 0  9997
2 47929  51.6401 306.3373 0003211 132.1579 227.9688 15.59745925 49478
HIROGARI (OPUSAT-II)    
1 47930U 98067SG  22026.31699891  .00074015  00000+0  70029-3 0  9998
2 47930  51.6383 304.1775 0004086 138.5786 221.5520 15.66291116 49507
GUARANISAT-1            
1 47931U 98067SH  22026.23407390  .00038300  00000+0  47254-3 0  9992
2 47931  51.6410 308.8884 0003261 130.4674 229.6604 15.59781180 49433
DIY-1 (ARDUIQUBE)       
1 47963U 21022AH  22026.70858108  .00007023  00000+0  44393-3 0  9992
2 47963  97.5449 290.1080 0016687 261.5565  98.3773 15.09231080 45541
